NUSHSAT1                
1 63211U 25052B   26068.64700493  .00023034  00000+0  74857-3 0  9997
2 63211  97.4095 325.7239 0005501  84.7512 275.4357 15.31903202 54882
STARLINK-34463          
1 64598U 25137E   26068.97233046  .00017580  00000+0  60445-3 0  9998
2 64598  53.1580 334.2407 0000994 128.8730 231.2360 15.30189777 40773
